[{"OBJECT_NAME":"ONEWEB-0545","OBJECT_ID":"2022-166F","EPOCH":"2026-03-09T13:46:34.548672","MEAN_MOTION":13.2182648,"ECCENTRICITY":0.0001101,"INCLINATION":87.9163,"RA_OF_ASC_NODE":263.8465,"ARG_OF_PERICENTER":90.0937,"MEAN_ANOMALY":270.0323,"EPHEMERIS_TYPE":0,"CLASSIFICATION_TYPE":"U","NORAD_CAT_ID":54647,"ELEMENT_SET_NO":999,"REV_AT_EPOCH":15834,"BSTAR":8.7971e-5,"MEAN_MOTION_DOT":4.9e-7,"MEAN_MOTION_DDOT":0},{"OBJECT_NAME":"ONEWEB-0721","OBJECT_ID":"2023-068R","EPOCH":"2026-03-09T15:32:52.865376","MEAN_MOTION":13.22461847,"ECCENTRICITY":0.00019199,"INCLINATION":86.676,"RA_OF_ASC_NODE":117.3008,"ARG_OF_PERICENTER":100.0966,"MEAN_ANOMALY":260.0384,"EPHEMERIS_TYPE":0,"CLASSIFICATION_TYPE":"U","NORAD_CAT_ID":56725,"ELEMENT_SET_NO":999,"REV_AT_EPOCH":14478,"BSTAR":-0.00017098121,"MEAN_MOTION_DOT":-5.7e-7,"MEAN_MOTION_DDOT":0}]
