ONEWEB-0545             
1 54647U 22166F   26068.57401098  .00000049  00000+0  87971-4 0  9997
2 54647  87.9163 263.8465 0001101  90.0937 270.0323 13.21826480158340
ONEWEB-0721             
1 56725U 23068R   26068.64783409 -.00000057  00000+0 -17098-3 0  9998
2 56725  86.6760 117.3008 0001920 100.0966 260.0384 13.22461847144789
